[{"OBJECT_NAME":"STARLINK-3622","OBJECT_ID":"2022-017A","EPOCH":"2026-03-09T22:50:56.923872","MEAN_MOTION":15.08834684,"ECCENTRICITY":0.00012069,"INCLINATION":53.2189,"RA_OF_ASC_NODE":337.9436,"ARG_OF_PERICENTER":94.8806,"MEAN_ANOMALY":265.2324,"EPHEMERIS_TYPE":0,"CLASSIFICATION_TYPE":"U","NORAD_CAT_ID":51768,"ELEMENT_SET_NO":999,"REV_AT_EPOCH":22408,"BSTAR":6.8152106e-5,"MEAN_MOTION_DOT":7.97e-6,"MEAN_MOTION_DDOT":0},{"OBJECT_NAME":"OBJECT D","OBJECT_ID":"2025-013D","EPOCH":"2026-03-09T22:45:56.369376","MEAN_MOTION":15.10588544,"ECCENTRICITY":0.0008827,"INCLINATION":97.6457,"RA_OF_ASC_NODE":238.3603,"ARG_OF_PERICENTER":18.3993,"MEAN_ANOMALY":341.7554,"EPHEMERIS_TYPE":0,"CLASSIFICATION_TYPE":"U","NORAD_CAT_ID":62732,"ELEMENT_SET_NO":999,"REV_AT_EPOCH":6229,"BSTAR":0.00036300228,"MEAN_MOTION_DOT":5.935e-5,"MEAN_MOTION_DDOT":0}]
